"Id","Code","Name","Address","City","State","Zip","Phone","Email"
"1","6461490-UUNOOYS-2542","Pharazon's Step Weakness Employment Office","1463 Galighner Terrace","Franklin","Wisconsin","54407",,
"3","DKANWG-5621-67600","Anarion's Slammer Replacement Fast Food Food Factories","869 Southard Blvd","Andover","Minnesota","56528","802-209-7597","fastfoodfoodfactories@anarionreplacement.com"
"6","882530-PZRQU-148","Shadowfax's Shadow Physics Bail Bonds","1670 Coshocton Lane","New Smyrna Beach","Florida","33760",,
"7","6463-422970-DAIMXDI","The Grey's Chat Revenue Photography","457 Burnell Boulevard","Fairbanks",,"99777","701-169-0955","photography@the greyrevenue.com"
"8","815-6000-JLLKHH","Eru's Praise Uncle Tax Preparation","515 Bonaparte Drv","Newark","Delaware","19733",,"taxpreparation@eruuncle.org"
"9","PJJGIW-3300-4679210","Gildor's Hurry Diamond Auto Dealership","593 Dresden Street","WahiawÄ","Hawaii","96720",,"cindy.gildor@diamondautodealership.com"
"10","834-8670970-ORJDFFN","Deagol's Twist People Taxi","680 Waters Ridge","Pleasant Grove","Utah","84771","219-648-0859","kevin.deagol@peopletaxi.org"
"11","63640-PRKUWM-756","Pollando's Receive Uncle Locksmith","1067 Orders Place","Parker",,"80446","701-527-6015","locksmith@pollandouncle.org"
"12","IUTHOXOM-2459-802560","Imrahil's Receive Desk Livestock and Slaughtery","1225 Blackwood Avenue","Gary","Indiana","46391","219-027-9538","annabella.imrahil@desklivestockandslaughtery.biz"
"13","ELNQWJ-7743-151570","The White's Target Death Electrolysis","1017 Burbank Heights","Sun City","Arizona","85633","859-075-1091",
"14","69960-YONQDUVB-790","Annatar's Instruct Salad Vocational School","1324 Beauty Ln","Mustang","Oklahoma","73089","406-025-9743",
"15","3532-5030-NUCHOWH","Sandyman's Look Tension Drug Screening","1457 Teakwood Place","Cimarron Hills","Colorado","80539","406-691-0705","natalie.sandyman@tensiondrugscreening.org"
"16","DXAYQV-2890-81750","Bregolas's Confess Tradition Cosmetology School","699 Harbor Ave","Whitney","Nevada","89301","208-191-3727","cosmetologyschool@bregolastradition.us"
"17","4154-5439370-SJWUS","Gildor's Insert Desk Credit Union","1365 Jewitt Circle","Meridian",,"83805","316-142-8045","creditunion@gildordesk.org"
"18","4583-716410-HGBQC","Ecthelion's Weaken Salad Technical School","925 Cornstill Lane","Monrovia",,"91470",,"technicalschool@ecthelionsalad.biz"
"19","248530-YSOPNBXT-561","Bifur's Know Reputation Personal Assistant","508 High Trail","Westland","Michigan","49444","206-543-6785",
"20","FMHQSDF-1584-902070","Shadowfax's Weaken Secretary Remodeling","1337 Candlestick Square","Kalispell","Montana","59856",,
"21","8424-2320-NDNGWRJH","Hamfast's Twist Bedroom GED Certification","438 Parliament Ridge","Hauppauge",,"12007","219-410-8261",
"22","532930-NTQIZ-9435","Eru's Weaken Artisan Publishing","914 Locust St","Champaign","Illinois","62205","605-530-6728","ivy.eru@artisanpublishing35.net"
"23","YLOURL-770-5900","Durin's Serve Throat Cosmetology School","1289 Dickson Ave","Coventry",,"2885","458-511-7095","delilah.durin@throatcosmetologyschool.us"
"24","4864-9471870-ELXFW","Shadowfax's Understand Uncle Embalmer","1136 Bottom Street","Conway","South Carolina","29835","218-813-1961","embalmer@shadowfaxuncle.com"
"25","524-8510-FTVKXIO","Maeglin's Test Response Wholesale Drug Distribution","616 Wabash Lane","Sioux City","Iowa","52308","205-754-7594","wholesaledrugdistribution@maeglinresponse.net"
"26","5868770-JZLGWRQ-5692","Finwe's Confess Poetry Barber Shop","410 Holmes Crescent","South Bel Air","Maryland","21626",,"peter.finwe@poetrybarbershop.us"
"27","5769880-FFTAPZO-9879","Felagund's Seeing Exception Used Car Sales","758 Burnet Run","Bergenfield","New Jersey","7524",,"usedcarsales@felagundexception.co.uk"
"28","7990-5374690-GOEKRP","Varda's Void Profession Technical School","1312 Codell Square","Palm Springs",,"32211","203-067-4075","liv.varda@professiontechnicalschool80.org"
"29","7543950-DHAYY-445","Legolas's Quote Permission Collection Agency","1735 Wentz Ave","Westbrook","Maine","4096","423-393-3238",
"30","YQDXW-1794-66820","Goldberry's Agree Fortune Vocational School","421 Rosewood Ridge","Westerly",,"2883","240-042-6314",
"32","HGGLPVX-7661-5009090","The Brown's Serve Secretary Catering","1288 Broad Heights","Dyer",,"47426","907-589-7135","catering@the brownsecretary.biz"
"33","151920-JYJTLP-431","Elrohir's Copy Disease Dentistry","1705 Shoop St","Jackson","Mississippi","39286","385-890-1097","henry.elrohir@diseasedentistry.us"
"34","2860-CZDBNM-4933","Anarion's Weaken Wood Investing","1279 Arch Boulevard","Smyrna","Georgia","30411","229-316-3313","investing@anarionwood.net"
"35","2347-830410-QYOFH","Elrohir's Precede Bedroom Private Investigator","656 Monroe Crescent","Anchorage","Alaska","99511","210-197-1914","privateinvestigator@elrohirbedroom.org"
"36","408-456930-NQRLPDM","Elrohir's Dedicate Client Child Care Services","1021 Hewitt Street","Littleton","Colorado","81624","319-873-9189","abby.elrohir@clientchildcareservices.com"
"37","5940-EZXKHT-5559","Amrod's Understand Outcome Taxi","1447 Laurel Rd","Des Moines","Iowa","50025","239-734-3093","trinity.amrod@outcometaxi.co.uk"
"38","HJFLA-8812-7970","Hurin's Collect Artisan Home Health Services","1630 Sevall Ln","Windham","Connecticut","6859","303-256-7306","vanessa.hurin@artisanhomehealthservices.us"
"40","BDCZICYK-1321-95000","The White's Step Salad Funeral Director","1233 Hartford Street","McKeesport","Pennsylvania","19550","302-396-1773","scarlet.the white@saladfuneraldirector.org"
"41","SYQFVM-4350-83390","The White's Protect Shirt Home Health Services","1576 Chapman Square","Huntsville","Texas","76670",,"quinn.the white@shirthomehealthservices.org"
"43","8686-42820-EBWMVVE","Elrond's Slam Opportunity Architecture","1523 Cass Trail","Manhattan",,"13027",,"amy.elrond@opportunityarchitecture.us"
"44","117400-UOTMXFH-7328","Ungoliant's Gasp Requirement Repair and Maintenance","455 Darlington Parkway","Butte-Silver Bow (Balance)","Montana","59447",,"ariel.ungoliant@requirementrepairandmaintenance.com"
"45","8580-VIECJMU-645","Bracegirdle's Test Tennis HVAC Repair","1027 Pennsylvania Avenue","Laramie","Wyoming","82723",,"megan.bracegirdle@tennishvacrepair.com"
"46","19260-UMHWQFXK-9394","Gil-Galad's Understand Tennis Cash Advances","1695 Ball Station","Rutland","Vermont","5036","239-975-4567","austin.gil-galad@tenniscashadvances44.org"
"47","3953-8430-AXPDYZI","Sandyman's Step User Janitorial Services","465 Surger Station","East Concord","New Hampshire","3604","603-965-4517","jose.sandyman@userjanitorialservices.org"
"48","EYKMJ-6561-837830","Curufin's Prevent Topic Gas Distribution","531 Eddy Crescent","Grosse Pointe Woods","Michigan","49528","212-260-8310","gasdistribution@curufintopic.co.uk"
"49","CBVKWA-6070-41790","Nimrodel's Collect Estate Private Investigator","841 Kahler Lane","Logansport","Indiana","46076","203-748-2963","privateinvestigator@nimrodelestate.com"
"50","CWSHRFDP-870-542530","Gimli's Prevent Physics Racetrack","507 Fayette Run","Allentown","Pennsylvania","15613",,"racetrack@gimliphysics.org"
